[{"OBJECT_NAME":"STARLINK-37072","OBJECT_ID":"2026-049M","EPOCH":"2026-03-19T12:16:50.098080","MEAN_MOTION":16.0350625,"ECCENTRICITY":0.0002614,"INCLINATION":97.2788,"RA_OF_ASC_NODE":98.076,"ARG_OF_PERICENTER":12.6003,"MEAN_ANOMALY":347.5342,"EPHEMERIS_TYPE":0,"CLASSIFICATION_TYPE":"U","NORAD_CAT_ID":68153,"ELEMENT_SET_NO":999,"REV_AT_EPOCH":95,"BSTAR":-0.00025962,"MEAN_MOTION_DOT":-0.00162025,"MEAN_MOTION_DDOT":1.2479e-5},{"OBJECT_NAME":"STARLINK-36241","OBJECT_ID":"2026-049N","EPOCH":"2026-03-19T12:15:49.006368","MEAN_MOTION":16.03790974,"ECCENTRICITY":0.0002702,"INCLINATION":97.2787,"RA_OF_ASC_NODE":98.0764,"ARG_OF_PERICENTER":13.124,"MEAN_ANOMALY":347.011,"EPHEMERIS_TYPE":0,"CLASSIFICATION_TYPE":"U","NORAD_CAT_ID":68154,"ELEMENT_SET_NO":999,"REV_AT_EPOCH":95,"BSTAR":-0.00021485,"MEAN_MOTION_DOT":-0.00136495,"MEAN_MOTION_DDOT":9.5698e-6},{"OBJECT_NAME":"STARLINK-37048","OBJECT_ID":"2026-049P","EPOCH":"2026-03-19T07:45:22.656096","MEAN_MOTION":16.0490738,"ECCENTRICITY":0.0002251,"INCLINATION":97.2786,"RA_OF_ASC_NODE":97.8732,"ARG_OF_PERICENTER":149.8692,"MEAN_ANOMALY":210.2719,"EPHEMERIS_TYPE":0,"CLASSIFICATION_TYPE":"U","NORAD_CAT_ID":68155,"ELEMENT_SET_NO":999,"REV_AT_EPOCH":92,"BSTAR":0.00015061,"MEAN_MOTION_DOT":0.00101037,"MEAN_MOTION_DDOT":6.6606e-6},{"OBJECT_NAME":"STARLINK-36313","OBJECT_ID":"2026-049Q","EPOCH":"2026-03-19T12:15:24.149088","MEAN_MOTION":16.03927223,"ECCENTRICITY":0.0002314,"INCLINATION":97.2787,"RA_OF_ASC_NODE":98.0771,"ARG_OF_PERICENTER":1.4479,"MEAN_ANOMALY":358.6808,"EPHEMERIS_TYPE":0,"CLASSIFICATION_TYPE":"U","NORAD_CAT_ID":68156,"ELEMENT_SET_NO":999,"REV_AT_EPOCH":95,"BSTAR":-0.00026937,"MEAN_MOTION_DOT":-0.00172305,"MEAN_MOTION_DDOT":1.3864e-5},{"OBJECT_NAME":"STARLINK-37064","OBJECT_ID":"2026-049R","EPOCH":"2026-03-19T12:16:14.522880","MEAN_MOTION":16.03667729,"ECCENTRICITY":0.00022388,"INCLINATION":97.2784,"RA_OF_ASC_NODE":98.0764,"ARG_OF_PERICENTER":357.8304,"MEAN_ANOMALY":2.2966,"EPHEMERIS_TYPE":0,"CLASSIFICATION_TYPE":"U","NORAD_CAT_ID":68157,"ELEMENT_SET_NO":999,"REV_AT_EPOCH":95,"BSTAR":-0.00022898351,"MEAN_MOTION_DOT":-0.00144348,"MEAN_MOTION_DDOT":1.0411467e-5},{"OBJECT_NAME":"STARLINK-37069","OBJECT_ID":"2026-049S","EPOCH":"2026-03-19T12:13:33.650400","MEAN_MOTION":16.06600253,"ECCENTRICITY":0.0001368,"INCLINATION":97.2784,"RA_OF_ASC_NODE":98.0788,"ARG_OF_PERICENTER":7.264,"MEAN_ANOMALY":352.8662,"EPHEMERIS_TYPE":0,"CLASSIFICATION_TYPE":"U","NORAD_CAT_ID":68158,"ELEMENT_SET_NO":999,"REV_AT_EPOCH":95,"BSTAR":0.0014785,"MEAN_MOTION_DOT":0.01093981,"MEAN_MOTION_DDOT":0.00068408},{"OBJECT_NAME":"STARLINK-37053","OBJECT_ID":"2026-049T","EPOCH":"2026-03-19T07:44:16.985184","MEAN_MOTION":16.05261971,"ECCENTRICITY":0.00025313,"INCLINATION":97.2784,"RA_OF_ASC_NODE":97.8738,"ARG_OF_PERICENTER":141.0873,"MEAN_ANOMALY":219.0591,"EPHEMERIS_TYPE":0,"CLASSIFICATION_TYPE":"U","NORAD_CAT_ID":68159,"ELEMENT_SET_NO":999,"REV_AT_EPOCH":92,"BSTAR":9.5454192e-5,"MEAN_MOTION_DOT":0.00065181,"MEAN_MOTION_DDOT":4.110318e-6},{"OBJECT_NAME":"STARLINK-36306","OBJECT_ID":"2026-049U","EPOCH":"2026-03-19T12:13:21.534528","MEAN_MOTION":16.04569636,"ECCENTRICITY":0.0002364,"INCLINATION":97.2782,"RA_OF_ASC_NODE":98.0789,"ARG_OF_PERICENTER":13.0399,"MEAN_ANOMALY":347.0943,"EPHEMERIS_TYPE":0,"CLASSIFICATION_TYPE":"U","NORAD_CAT_ID":68160,"ELEMENT_SET_NO":999,"REV_AT_EPOCH":95,"BSTAR":-0.00030343808,"MEAN_MOTION_DOT":-0.00201573,"MEAN_MOTION_DDOT":1.8201465e-5},{"OBJECT_NAME":"STARLINK-37057","OBJECT_ID":"2026-049V","EPOCH":"2026-03-20T19:44:00.954528","MEAN_MOTION":15.99652779,"ECCENTRICITY":5.165e-5,"INCLINATION":97.2774,"RA_OF_ASC_NODE":99.5066,"ARG_OF_PERICENTER":61.6825,"MEAN_ANOMALY":298.4505,"EPHEMERIS_TYPE":0,"CLASSIFICATION_TYPE":"U","NORAD_CAT_ID":68161,"ELEMENT_SET_NO":999,"REV_AT_EPOCH":116,"BSTAR":-0.0015396315,"MEAN_MOTION_DOT":-0.00764003,"MEAN_MOTION_DDOT":0.00019799191},{"OBJECT_NAME":"STARLINK-37013","OBJECT_ID":"2026-049W","EPOCH":"2026-03-21T16:40:57.524736","MEAN_MOTION":15.97720878,"ECCENTRICITY":0.00024193,"INCLINATION":97.2751,"RA_OF_ASC_NODE":100.463,"ARG_OF_PERICENTER":181.7796,"MEAN_ANOMALY":178.3473,"EPHEMERIS_TYPE":0,"CLASSIFICATION_TYPE":"U","NORAD_CAT_ID":68162,"ELEMENT_SET_NO":999,"REV_AT_EPOCH":130,"BSTAR":-0.00096709955,"MEAN_MOTION_DOT":-0.00432164,"MEAN_MOTION_DDOT":6.6806153e-5},{"OBJECT_NAME":"STARLINK-36958","OBJECT_ID":"2026-049X","EPOCH":"2026-03-21T19:43:37.594560","MEAN_MOTION":15.96566451,"ECCENTRICITY":0.0001991,"INCLINATION":97.2737,"RA_OF_ASC_NODE":100.5959,"ARG_OF_PERICENTER":109.9976,"MEAN_ANOMALY":250.1515,"EPHEMERIS_TYPE":0,"CLASSIFICATION_TYPE":"U","NORAD_CAT_ID":68163,"ELEMENT_SET_NO":999,"REV_AT_EPOCH":132,"BSTAR":-0.0017839671,"MEAN_MOTION_DOT":-0.00746686,"MEAN_MOTION_DDOT":0.00018327201},{"OBJECT_NAME":"STARLINK-37002","OBJECT_ID":"2026-049Y","EPOCH":"2026-03-20T19:41:35.358432","MEAN_MOTION":16.00359997,"ECCENTRICITY":5.68e-5,"INCLINATION":97.2773,"RA_OF_ASC_NODE":99.5096,"ARG_OF_PERICENTER":170.3743,"MEAN_ANOMALY":189.7546,"EPHEMERIS_TYPE":0,"CLASSIFICATION_TYPE":"U","NORAD_CAT_ID":68164,"ELEMENT_SET_NO":999,"REV_AT_EPOCH":116,"BSTAR":-0.00092965787,"MEAN_MOTION_DOT":-0.00481185,"MEAN_MOTION_DDOT":8.4172413e-5},{"OBJECT_NAME":"STARLINK-36971","OBJECT_ID":"2026-049Z","EPOCH":"2026-03-21T09:10:47.185248","MEAN_MOTION":15.99800071,"ECCENTRICITY":0.00082212,"INCLINATION":97.2764,"RA_OF_ASC_NODE":100.1226,"ARG_OF_PERICENTER":134.8506,"MEAN_ANOMALY":225.3442,"EPHEMERIS_TYPE":0,"CLASSIFICATION_TYPE":"U","NORAD_CAT_ID":68165,"ELEMENT_SET_NO":999,"REV_AT_EPOCH":125,"BSTAR":-0.0032495883,"MEAN_MOTION_DOT":-0.01621138,"MEAN_MOTION_DDOT":0.00080040981},{"OBJECT_NAME":"STARLINK-36273","OBJECT_ID":"2026-049AA","EPOCH":"2026-03-20T18:09:04.725216","MEAN_MOTION":16.01239572,"ECCENTRICITY":6.488e-5,"INCLINATION":97.275,"RA_OF_ASC_NODE":99.4439,"ARG_OF_PERICENTER":211.7263,"MEAN_ANOMALY":148.3977,"EPHEMERIS_TYPE":0,"CLASSIFICATION_TYPE":"U","NORAD_CAT_ID":68166,"ELEMENT_SET_NO":999,"REV_AT_EPOCH":115,"BSTAR":-0.0005628694,"MEAN_MOTION_DOT":-0.00306844,"MEAN_MOTION_DDOT":3.6956624e-5},{"OBJECT_NAME":"STARLINK-36969","OBJECT_ID":"2026-050A","EPOCH":"2026-03-19T13:41:02.541120","MEAN_MOTION":15.9734321,"ECCENTRICITY":4.88e-5,"INCLINATION":53.1618,"RA_OF_ASC_NODE":232.5443,"ARG_OF_PERICENTER":318.1927,"MEAN_ANOMALY":41.9065,"EPHEMERIS_TYPE":0,"CLASSIFICATION_TYPE":"U","NORAD_CAT_ID":68167,"ELEMENT_SET_NO":999,"REV_AT_EPOCH":203,"BSTAR":-0.0016788,"MEAN_MOTION_DOT":-0.00762286,"MEAN_MOTION_DDOT":0.00019812},{"OBJECT_NAME":"STARLINK-36984","OBJECT_ID":"2026-050B","EPOCH":"2026-03-19T13:40:45.953184","MEAN_MOTION":15.97468217,"ECCENTRICITY":5.65e-5,"INCLINATION":53.162,"RA_OF_ASC_NODE":232.5441,"ARG_OF_PERICENTER":333.0752,"MEAN_ANOMALY":27.0248,"EPHEMERIS_TYPE":0,"CLASSIFICATION_TYPE":"U","NORAD_CAT_ID":68168,"ELEMENT_SET_NO":999,"REV_AT_EPOCH":203,"BSTAR":-0.0016463,"MEAN_MOTION_DOT":-0.00752821,"MEAN_MOTION_DDOT":0.000194}]
